OBJECT_NAME,OBJECT_ID,EPOCH,MEAN_MOTION,ECCENTRICITY,INCLINATION,RA_OF_ASC_NODE,ARG_OF_PERICENTER,MEAN_ANOMALY,EPHEMERIS_TYPE,CLASSIFICATION_TYPE,NORAD_CAT_ID,ELEMENT_SET_NO,REV_AT_EPOCH,BSTAR,MEAN_MOTION_DOT,MEAN_MOTION_DDOT
GSAT0215 (GALILEO 19),2017-079A,2026-06-13T11:54:24.825888,1.70474538,.0003011,55.0744,221.6084,262.8023,97.2638,0,U,43055,999,5292,0,.62E-6,0
GSAT0216 (GALILEO 20),2017-079B,2026-06-13T18:53:40.298208,1.70474522,.00044684,55.0743,221.6004,275.6764,84.3739,0,U,43056,999,5294,0,.61E-6,0
GSAT0217 (GALILEO 21),2017-079C,2026-06-14T00:11:36.914496,1.70474083,.00047433,55.0725,221.5923,283.1918,76.8570,0,U,43057,999,5293,0,.61E-6,0
GSAT0218 (GALILEO 22),2017-079D,2026-06-13T01:19:09.756192,1.70474471,.00050247,55.0728,221.6159,272.4694,87.5720,0,U,43058,999,5294,0,.61E-6,0
BEIDOU-3 M7 (C27),2018-003A,2026-06-12T12:25:43.718304,1.86228217,.00049085,54.3326,302.4785,93.1066,266.9324,0,U,43107,999,5726,0,-.69E-6,0
BEIDOU-3 M8 (C28),2018-003B,2026-06-11T22:13:05.611296,1.86231100,.00024644,54.3258,302.4809,263.1764,96.7794,0,U,43108,999,5726,0,-.68E-6,0
BEIDOU-3 M4 (C22),2018-018A,2026-06-13T23:30:36.291744,1.86230844,.00077969,56.6477,63.2545,19.0870,340.9711,0,U,43207,999,5668,0,-.54E-6,0
BEIDOU-3 M3 (C21),2018-018B,2026-06-13T12:13:06.492288,1.86230755,.00086812,56.6473,63.2743,341.1223,18.8726,0,U,43208,999,5667,0,-.55E-6,0
BEIDOU-3 M9 (C29),2018-029A,2026-06-14T06:19:57.077184,1.86228094,.0000979,54.1964,300.0516,151.4911,208.4979,0,U,43245,999,5584,0,-.68E-6,0
BEIDOU-3 M10 (C30),2018-029B,2026-06-12T14:05:47.607648,1.86229309,.00039027,54.1961,300.1366,39.2234,320.7882,0,U,43246,999,5579,0,-.68E-6,0
IRNSS-1I,2018-035A,2026-06-14T20:12:28.276416,1.00271722,.0017858,28.7494,74.2326,181.5121,5.3509,0,U,43286,999,3005,0,.64E-6,0
COSMOS 2527 (756),2018-053A,2026-06-10T23:37:19.080768,2.13102302,.00073927,65.5740,74.1146,241.2390,118.7028,0,U,43508,999,6214,0,-.28E-6,0
BEIDOU-2 IGSO-7 (C16),2018-057A,2026-06-14T10:12:17.793216,1.00251916,.01049768,55.1941,163.0822,237.9873,124.9006,0,U,43539,999,2910,0,-.2E-7,0
GSAT0221 (GALILEO 25),2018-060A,2026-06-10T14:42:06.878304,1.70475913,.0002678,57.1738,341.9578,307.2326,52.7584,0,U,43564,999,4905,0,-.63E-6,0
GSAT0222 (GALILEO 26),2018-060B,2026-06-12T00:07:45.785856,1.70475625,.00019184,57.1760,341.9240,251.7129,108.2786,0,U,43565,999,4912,0,-.67E-6,0
GSAT0219 (GALILEO 23),2018-060C,2026-06-13T23:39:52.959168,1.70475843,.000211,57.1733,341.8717,326.6126,33.3787,0,U,43566,999,4913,0,-.76E-6,0
GSAT0220 (GALILEO 24),2018-060D,2026-06-11T20:39:23.261760,1.70475609,.00022524,57.1774,341.9298,315.5047,44.4900,0,U,43567,999,4908,0,-.67E-6,0
BEIDOU-3 M5 (C23),2018-062A,2026-06-13T08:21:45.241056,1.86228409,.00055552,54.0854,182.4348,288.6407,71.3585,0,U,43581,999,5356,0,.114E-5,0
BEIDOU-3 M6 (C24),2018-062B,2026-06-13T17:58:20.549280,1.86227682,.00049186,54.0851,182.4102,9.3992,350.6673,0,U,43582,999,5357,0,.109E-5,0
BEIDOU-3 M12 (C26),2018-067A,2026-06-14T18:16:04.046880,1.86227719,.0007732,54.1799,181.1228,29.9591,330.1326,0,U,43602,999,5307,0,.93E-6,0
BEIDOU-3 M11 (C25),2018-067B,2026-06-14T08:37:19.994880,1.86227183,.00044374,54.1775,181.0999,12.9310,347.1309,0,U,43603,999,5309,0,.99E-6,0
BEIDOU-3 M13 (C32),2018-072A,2026-06-13T18:39:05.367744,1.86231394,.00073575,56.6216,62.7728,328.6161,31.3689,0,U,43622,999,5259,0,-.55E-6,0
BEIDOU-3 M14 (C33),2018-072B,2026-06-14T04:18:32.046048,1.86231391,.0006155,56.6235,62.7539,359.2992,0.7305,0,U,43623,999,5259,0,-.54E-6,0
BEIDOU-3 M16 (C35),2018-078A,2026-06-14T08:02:15.266688,1.86232193,.0007195,54.0926,300.0861,40.8938,319.1437,0,U,43647,999,5210,0,-.68E-6,0
BEIDOU-3 M15 (C34),2018-078B,2026-06-14T11:08:25.881216,1.86232267,.0004204,54.0883,300.0818,57.5981,302.4264,0,U,43648,999,5212,0,-.68E-6,0
BEIDOU-3 G1 (C59),2018-085A,2026-06-14T18:59:57.297696,1.00270487,.0008069,2.8610,97.4485,348.9234,261.6672,0,U,43683,999,2803,0,-.105E-5,0
COSMOS 2529 (757),2018-086A,2026-06-14T08:46:30.601344,2.13101901,.0012019,64.2947,192.6898,256.4498,103.4890,0,U,43687,999,5922,0,.103E-5,0
BEIDOU-3 M17 (C36),2018-093A,2026-06-14T15:05:50.516160,1.86228294,.0010181,54.1689,182.3831,291.8548,70.3870,0,U,43706,999,5149,0,.95E-6,0
BEIDOU-3 M18 (C37),2018-093B,2026-06-12T08:11:19.438080,1.86226356,.00079008,54.1696,182.4530,320.5201,39.4855,0,U,43707,999,5144,0,.125E-5,0
GPS BIII-1  (PRN 04),2018-109A,2026-06-14T18:35:19.747104,2.00561363,.0038144,55.6805,92.2820,198.0060,343.7149,0,U,43873,999,5502,0,-.25E-6,0
BEIDOU-3 IGSO-1 (C38),2019-023A,2026-06-06T22:54:10.040832,1.00294886,.00254341,58.6799,37.7569,225.6649,92.8731,0,U,44204,999,710,0,-.215E-5,0
