GSAT0215 (GALILEO 19)   
1 43055U 17079A   26164.49612067  .00000062  00000+0  00000+0 0  9991
2 43055  55.0744 221.6084 0003011 262.8023  97.2638  1.70474538 52927
GSAT0216 (GALILEO 20)   
1 43056U 17079B   26164.78727197  .00000061  00000+0  00000+0 0  9994
2 43056  55.0743 221.6004 0004468 275.6764  84.3739  1.70474522 52944
GSAT0217 (GALILEO 21)   
1 43057U 17079C   26165.00806614  .00000061  00000+0  00000+0 0  9993
2 43057  55.0725 221.5923 0004743 283.1918  76.8570  1.70474083 52935
GSAT0218 (GALILEO 22)   
1 43058U 17079D   26164.05497403  .00000061  00000+0  00000+0 0  9990
2 43058  55.0728 221.6159 0005024 272.4694  87.5720  1.70474471 52944
BEIDOU-3 M7             
1 43107U 18003A   26163.51786711 -.00000069  00000+0  00000+0 0  9995
2 43107  54.3326 302.4785 0004908  93.1066 266.9324  1.86228217 57264
BEIDOU-3 M8             
1 43108U 18003B   26162.92575939 -.00000068  00000+0  00000+0 0  9997
2 43108  54.3258 302.4809 0002464 263.1764  96.7794  1.86231100 57260
BEIDOU-3 M4             
1 43207U 18018A   26164.97958671 -.00000054  00000+0  00000+0 0  9993
2 43207  56.6477  63.2545 0007796  19.0870 340.9711  1.86230844 56688
BEIDOU-3 M3             
1 43208U 18018B   26164.50910292 -.00000055  00000+0  00000+0 0  9991
2 43208  56.6473  63.2743 0008681 341.1223  18.8726  1.86230755 56677
BEIDOU-3 M9             
1 43245U 18029A   26165.26385506 -.00000068  00000+0  00000+0 0  9996
2 43245  54.1964 300.0516 0000979 151.4911 208.4979  1.86228094 55842
BEIDOU-3 M10            
1 43246U 18029B   26163.58735657 -.00000068  00000+0  00000+0 0  9996
2 43246  54.1961 300.1366 0003902  39.2234 320.7882  1.86229309 55799
IRNSS-1I                
1 43286U 18035A   26165.84199394  .00000064  00000+0  00000+0 0  9995
2 43286  28.7494  74.2326 0017858 181.5121   5.3509  1.00271722 30053
COSMOS 2527 [GLONASS-M] 
1 43508U 18053A   26161.98424862 -.00000028  00000+0  00000+0 0  9995
2 43508  65.5740  74.1146 0007392 241.2390 118.7028  2.13102302 62148
BEIDOU-2 IGSO-7         
1 43539U 18057A   26165.42520594 -.00000002  00000+0  00000+0 0  9997
2 43539  55.1941 163.0822 0104976 237.9873 124.9006  1.00251916 29108
GSAT0221 (GALILEO 25)   
1 43564U 18060A   26161.61257961 -.00000063  00000+0  00000+0 0  9998
2 43564  57.1738 341.9578 0002678 307.2326  52.7584  1.70475913 49054
GSAT0222 (GALILEO 26)   
1 43565U 18060B   26163.00539104 -.00000067  00000+0  00000+0 0  9990
2 43565  57.1760 341.9240 0001918 251.7129 108.2786  1.70475625 49125
GSAT0219 (GALILEO 23)   
1 43566U 18060C   26164.98602962 -.00000076  00000+0  00000+0 0  9992
2 43566  57.1733 341.8717 0002110 326.6126  33.3787  1.70475843 49130
GSAT0220 (GALILEO 24)   
1 43567U 18060D   26162.86068590 -.00000067  00000+0  00000+0 0  9991
2 43567  57.1774 341.9298 0002252 315.5047  44.4900  1.70475609 49081
BEIDOU-3 M5             
1 43581U 18062A   26164.34844029  .00000114  00000+0  00000+0 0  9995
2 43581  54.0854 182.4348 0005555 288.6407  71.3585  1.86228409 53562
BEIDOU-3 M6             
1 43582U 18062B   26164.74884895  .00000109  00000+0  00000+0 0  9999
2 43582  54.0851 182.4102 0004918   9.3992 350.6673  1.86227682 53571
BEIDOU-3 M12            
1 43602U 18067A   26165.76115795  .00000093  00000+0  00000+0 0  9998
2 43602  54.1799 181.1228 0007732  29.9591 330.1326  1.86227719 53075
BEIDOU-3 M11            
1 43603U 18067B   26165.35925920  .00000099  00000+0  00000+0 0  9999
2 43603  54.1775 181.0999 0004437  12.9310 347.1309  1.86227183 53090
BEIDOU-3 M13            
1 43622U 18072A   26164.77714546 -.00000055  00000+0  00000+0 0  9994
2 43622  56.6216  62.7728 0007357 328.6161  31.3689  1.86231394 52594
BEIDOU-3 M14            
1 43623U 18072B   26165.17953757 -.00000054  00000+0  00000+0 0  9998
2 43623  56.6235  62.7539 0006155 359.2992   0.7305  1.86231391 52595
BEIDOU-3 M16            
1 43647U 18078A   26165.33489892 -.00000068  00000+0  00000+0 0  9997
2 43647  54.0926 300.0861 0007195  40.8938 319.1437  1.86232193 52105
BEIDOU-3 M15            
1 43648U 18078B   26165.46418844 -.00000068  00000+0  00000+0 0  9991
2 43648  54.0883 300.0818 0004204  57.5981 302.4264  1.86232267 52128
BEIDOU-3 G1             
1 43683U 18085A   26165.79163539 -.00000105  00000+0  00000+0 0  9994
2 43683   2.8610  97.4485 0008069 348.9234 261.6672  1.00270487 28038
COSMOS 2529 [GLONASS-M] 
1 43687U 18086A   26165.36563196  .00000103  00000+0  00000+0 0  9992
2 43687  64.2947 192.6898 0012019 256.4498 103.4890  2.13101901 59227
BEIDOU-3 M17            
1 43706U 18093A   26165.62905690  .00000095  00000+0  00000+0 0  9990
2 43706  54.1689 182.3831 0010181 291.8548  70.3870  1.86228294 51495
BEIDOU-3 M18            
1 43707U 18093B   26163.34119720  .00000125  00000+0  00000+0 0  9993
2 43707  54.1696 182.4530 0007900 320.5201  39.4855  1.86226356 51443
NAVSTAR 77 (USA 289)    
1 43873U 18109A   26165.77453411 -.00000025  00000+0  00000+0 0  9992
2 43873  55.6805  92.2820 0038144 198.0060 343.7149  2.00561363 55022
BEIDOU-3 IGSO-1         
1 44204U 19023A   26157.95428288 -.00000215  00000+0  00000+0 0  9993
2 44204  58.6799  37.7569 0025434 225.6649  92.8731  1.00294886  7105
